[{"OBJECT_NAME":"STARLINK-1470","OBJECT_ID":"2020-038AU","EPOCH":"2026-03-09T14:36:51.476832","MEAN_MOTION":15.2807486,"ECCENTRICITY":0.0002444,"INCLINATION":53.048,"RA_OF_ASC_NODE":174.6971,"ARG_OF_PERICENTER":12.8687,"MEAN_ANOMALY":347.2373,"EPHEMERIS_TYPE":0,"CLASSIFICATION_TYPE":"U","NORAD_CAT_ID":45772,"ELEMENT_SET_NO":999,"REV_AT_EPOCH":31706,"BSTAR":0.0019687,"MEAN_MOTION_DOT":0.00054678,"MEAN_MOTION_DDOT":0},{"OBJECT_NAME":"STARLINK-3681","OBJECT_ID":"2022-025N","EPOCH":"2026-03-09T04:43:49.304352","MEAN_MOTION":15.29349023,"ECCENTRICITY":0.00015422,"INCLINATION":53.1573,"RA_OF_ASC_NODE":26.5377,"ARG_OF_PERICENTER":77.2671,"MEAN_ANOMALY":282.8502,"EPHEMERIS_TYPE":0,"CLASSIFICATION_TYPE":"U","NORAD_CAT_ID":51968,"ELEMENT_SET_NO":999,"REV_AT_EPOCH":22094,"BSTAR":2.5123415e-5,"MEAN_MOTION_DOT":3.69e-6,"MEAN_MOTION_DDOT":0}]
